{
    "links": {
        "self": "http://www.neowsapp.com/rest/v1/neo/3838100?api_key=iIulBulltgU6a56xZRHN4H3l9WmuAYTsLGpBGhQ2"
    },
    "id": "3838100",
    "neo_reference_id": "3838100",
    "name": "(2019 CX)",
    "designation": "2019 CX",
    "nasa_jpl_url": "http://ssd.jpl.nasa.gov/sbdb.cgi?sstr=3838100",
    "absolute_magnitude_h": 25.4,
    "estimated_diameter": {
        "kilometers": {
            "estimated_diameter_min": 0.022108281,
            "estimated_diameter_max": 0.0494356193
        },
        "meters": {
            "estimated_diameter_min": 22.1082810359,
            "estimated_diameter_max": 49.435619262
        },
        "miles": {
            "estimated_diameter_min": 0.0137374447,
            "estimated_diameter_max": 0.0307178602
        },
        "feet": {
            "estimated_diameter_min": 72.5337327539,
            "estimated_diameter_max": 162.1903570994
        }
    },
    "is_potentially_hazardous_asteroid": false,
    "close_approach_data": [
        {
            "close_approach_date": "2019-02-18",
            "close_approach_date_full": "2019-Feb-18 09:28",
            "epoch_date_close_approach": 1550482080000,
            "relative_velocity": {
                "kilometers_per_second": "9.0165669736",
                "kilometers_per_hour": "32459.6411050215",
                "miles_per_hour": "20169.158663284"
            },
            "miss_distance": {
                "astronomical": "0.0580923437",
                "lunar": "22.5979216993",
                "kilometers": "8690490.880827919",
                "miles": "5400020.6310625222"
            },
            "orbiting_body": "Earth"
        },
        {
            "close_approach_date": "2084-02-19",
            "close_approach_date_full": "2084-Feb-19 13:56",
            "epoch_date_close_approach": 3601806960000,
            "relative_velocity": {
                "kilometers_per_second": "8.797735896",
                "kilometers_per_hour": "31671.8492254617",
                "miles_per_hour": "19679.6554256765"
            },
            "miss_distance": {
                "astronomical": "0.0898299293",
                "lunar": "34.9438424977",
                "kilometers": "13438366.085530591",
                "miles": "8350213.4810045158"
            },
            "orbiting_body": "Earth"
        }
    ],
    "orbital_data": {
        "orbit_id": "2",
        "orbit_determination_date": "2019-02-14 07:10:16",
        "first_observation_date": "2019-01-09",
        "last_observation_date": "2019-02-12",
        "data_arc_in_days": 34,
        "observations_used": 31,
        "orbit_uncertainty": "8",
        "minimum_orbit_intersection": ".0528794",
        "jupiter_tisserand_invariant": "3.228",
        "epoch_osculation": "2458511.5",
        "eccentricity": ".5894208022934725",
        "semi_major_axis": "2.449699274011397",
        "inclination": "5.101472516658204",
        "ascending_node_longitude": "305.3356123051339",
        "orbital_period": "1400.449932911389",
        "perihelion_distance": "1.005795562545862",
        "perihelion_argument": "224.7081511378473",
        "aphelion_distance": "3.893602985476931",
        "perihelion_time": "2458549.140929958841",
        "mean_anomaly": "350.3240133997421",
        "mean_motion": ".2570602429546323",
        "equinox": "J2000",
        "orbit_class": {
            "orbit_class_type": "APO",
            "orbit_class_description": "Near-Earth asteroid orbits which cross the Earth’s orbit similar to that of 1862 Apollo",
            "orbit_class_range": "a (semi-major axis) > 1.0 AU; q (perihelion) < 1.017 AU"
        }
    },
    "is_sentry_object": false
}